ONEWEB-0045             
1 45151U 20008W   25159.76725583 -.00000560  00000+0 -16159-2 0  9997
2 45151  87.8839  95.4643 0001924  81.9282 278.2065 13.11417951261460
ONEWEB-0047             
1 45152U 20008X   25159.76095281  .00000315  00000+0  86616-3 0  9995
2 45152  87.8823 110.7314 0001948  80.3634 279.7713 13.10376860259296
ONEWEB-0048             
1 45153U 20008Y   25159.37417934  .00000105  00000+0  26418-3 0  9997
2 45153  87.8828 110.8316 0002006  79.5488 280.5865 13.10377399258855
ONEWEB-0049             
1 45154U 20008Z   25159.75846818  .00000167  00000+0  44069-3 0  9997
2 45154  87.8828 110.7486 0002202  67.7352 292.4008 13.10377613259121
ONEWEB-0051             
1 45155U 20008AA  25159.76554844 -.00000659  00000+0 -18964-2 0  9996
2 45155  87.8839  95.5080 0002076  80.7462 279.3901 13.11415432262145
ONEWEB-0052             
1 45156U 20008AB  25159.37169040 -.00000028  00000+0 -11527-3 0  9993
2 45156  87.8821 110.7690 0002111  64.7071 295.4275 13.10375601258984
ONEWEB-0053             
1 45157U 20008AC  25159.58332098 -.00000683  00000+0 -19935-2 0  9999
2 45157  87.8820 110.7879 0001677  84.7052 275.4266 13.10372548258985
ONEWEB-0054             
1 45158U 20008AD  25159.61820677  .00000586  00000+0  16437-2 0  9993
2 45158  87.8818 110.7561 0002115  79.8364 280.3001 13.10374216259101
